<?xml version="1.0" encoding="UTF-8"?>
<ndm xmlns:xsi="http://www.w3.org/2001/XMLSchema-instance" xsi:noNamespaceSchemaLocation="https://sanaregistry.org/r/ndmxml_unqualified/ndmxml-2.0.0-master-2.0.xsd">
<omm id="CCSDS_OMM_VERS" version="2.0">
<header><CREATION_DATE/><ORIGINATOR/></header><body><segment><metadata><OBJECT_NAME>IRIDIUM 159</OBJECT_NAME><OBJECT_ID>2018-061K</OBJECT_ID><CENTER_NAME>EARTH</CENTER_NAME><REF_FRAME>TEME</REF_FRAME><TIME_SYSTEM>UTC</TIME_SYSTEM><MEAN_ELEMENT_THEORY>SGP4</MEAN_ELEMENT_THEORY></metadata><data><meanElements><EPOCH>2025-02-17T22:37:50.459232</EPOCH><MEAN_MOTION>14.34217184</MEAN_MOTION><ECCENTRICITY>.0001737</ECCENTRICITY><INCLINATION>86.3919</INCLINATION><RA_OF_ASC_NODE>259.0317</RA_OF_ASC_NODE><ARG_OF_PERICENTER>91.3512</ARG_OF_PERICENTER><MEAN_ANOMALY>268.7883</MEAN_ANOMALY></meanElements><tleParameters><EPHEMERIS_TYPE>0</EPHEMERIS_TYPE><CLASSIFICATION_TYPE>U</CLASSIFICATION_TYPE><NORAD_CAT_ID>43578</NORAD_CAT_ID><ELEMENT_SET_NO>999</ELEMENT_SET_NO><REV_AT_EPOCH>34397</REV_AT_EPOCH><BSTAR>-.64908E-5</BSTAR><MEAN_MOTION_DOT>.2E-7</MEAN_MOTION_DOT><MEAN_MOTION_DDOT>0</MEAN_MOTION_DDOT></tleParameters></data></segment></body></omm>
<omm id="CCSDS_OMM_VERS" version="2.0">
<header><CREATION_DATE/><ORIGINATOR/></header><body><segment><metadata><OBJECT_NAME>IRIDIUM 180</OBJECT_NAME><OBJECT_ID>2019-002A</OBJECT_ID><CENTER_NAME>EARTH</CENTER_NAME><REF_FRAME>TEME</REF_FRAME><TIME_SYSTEM>UTC</TIME_SYSTEM><MEAN_ELEMENT_THEORY>SGP4</MEAN_ELEMENT_THEORY></metadata><data><meanElements><EPOCH>2025-02-17T22:37:06.925728</EPOCH><MEAN_MOTION>14.34218111</MEAN_MOTION><ECCENTRICITY>.0002134</ECCENTRICITY><INCLINATION>86.4010</INCLINATION><RA_OF_ASC_NODE>195.9409</RA_OF_ASC_NODE><ARG_OF_PERICENTER>98.0795</ARG_OF_PERICENTER><MEAN_ANOMALY>262.0643</MEAN_ANOMALY></meanElements><tleParameters><EPHEMERIS_TYPE>0</EPHEMERIS_TYPE><CLASSIFICATION_TYPE>U</CLASSIFICATION_TYPE><NORAD_CAT_ID>43922</NORAD_CAT_ID><ELEMENT_SET_NO>999</ELEMENT_SET_NO><REV_AT_EPOCH>31958</REV_AT_EPOCH><BSTAR>.21927E-4</BSTAR><MEAN_MOTION_DOT>.81E-6</MEAN_MOTION_DOT><MEAN_MOTION_DDOT>0</MEAN_MOTION_DDOT></tleParameters></data></segment></body></omm>
<omm id="CCSDS_OMM_VERS" version="2.0">
<header><CREATION_DATE/><ORIGINATOR/></header><body><segment><metadata><OBJECT_NAME>IRIDIUM 176</OBJECT_NAME><OBJECT_ID>2019-002B</OBJECT_ID><CENTER_NAME>EARTH</CENTER_NAME><REF_FRAME>TEME</REF_FRAME><TIME_SYSTEM>UTC</TIME_SYSTEM><MEAN_ELEMENT_THEORY>SGP4</MEAN_ELEMENT_THEORY></metadata><data><meanElements><EPOCH>2025-02-17T21:20:15.340416</EPOCH><MEAN_MOTION>14.72270816</MEAN_MOTION><ECCENTRICITY>.0001651</ECCENTRICITY><INCLINATION>86.6137</INCLINATION><RA_OF_ASC_NODE>195.9652</RA_OF_ASC_NODE><ARG_OF_PERICENTER>119.3716</ARG_OF_PERICENTER><MEAN_ANOMALY>240.7666</MEAN_ANOMALY></meanElements><tleParameters><EPHEMERIS_TYPE>0</EPHEMERIS_TYPE><CLASSIFICATION_TYPE>U</CLASSIFICATION_TYPE><NORAD_CAT_ID>43923</NORAD_CAT_ID><ELEMENT_SET_NO>999</ELEMENT_SET_NO><REV_AT_EPOCH>32799</REV_AT_EPOCH><BSTAR>.41917E-3</BSTAR><MEAN_MOTION_DOT>.2669E-4</MEAN_MOTION_DOT><MEAN_MOTION_DDOT>0</MEAN_MOTION_DDOT></tleParameters></data></segment></body></omm>
<omm id="CCSDS_OMM_VERS" version="2.0">
<header><CREATION_DATE/><ORIGINATOR/></header><body><segment><metadata><OBJECT_NAME>IRIDIUM 168</OBJECT_NAME><OBJECT_ID>2019-002C</OBJECT_ID><CENTER_NAME>EARTH</CENTER_NAME><REF_FRAME>TEME</REF_FRAME><TIME_SYSTEM>UTC</TIME_SYSTEM><MEAN_ELEMENT_THEORY>SGP4</MEAN_ELEMENT_THEORY></metadata><data><meanElements><EPOCH>2025-02-17T22:27:58.892256</EPOCH><MEAN_MOTION>14.34217539</MEAN_MOTION><ECCENTRICITY>.0001805</ECCENTRICITY><INCLINATION>86.4017</INCLINATION><RA_OF_ASC_NODE>196.0074</RA_OF_ASC_NODE><ARG_OF_PERICENTER>97.4339</ARG_OF_PERICENTER><MEAN_ANOMALY>262.7062</MEAN_ANOMALY></meanElements><tleParameters><EPHEMERIS_TYPE>0</EPHEMERIS_TYPE><CLASSIFICATION_TYPE>U</CLASSIFICATION_TYPE><NORAD_CAT_ID>43924</NORAD_CAT_ID><ELEMENT_SET_NO>999</ELEMENT_SET_NO><REV_AT_EPOCH>31956</REV_AT_EPOCH><BSTAR>-.16059E-4</BSTAR><MEAN_MOTION_DOT>-.25E-6</MEAN_MOTION_DOT><MEAN_MOTION_DDOT>0</MEAN_MOTION_DDOT></tleParameters></data></segment></body></omm>
<omm id="CCSDS_OMM_VERS" version="2.0">
<header><CREATION_DATE/><ORIGINATOR/></header><body><segment><metadata><OBJECT_NAME>IRIDIUM 173</OBJECT_NAME><OBJECT_ID>2019-002D</OBJECT_ID><CENTER_NAME>EARTH</CENTER_NAME><REF_FRAME>TEME</REF_FRAME><TIME_SYSTEM>UTC</TIME_SYSTEM><MEAN_ELEMENT_THEORY>SGP4</MEAN_ELEMENT_THEORY></metadata><data><meanElements><EPOCH>2025-02-17T22:09:42.329376</EPOCH><MEAN_MOTION>14.34218813</MEAN_MOTION><ECCENTRICITY>.0002134</ECCENTRICITY><INCLINATION>86.4009</INCLINATION><RA_OF_ASC_NODE>195.9212</RA_OF_ASC_NODE><ARG_OF_PERICENTER>96.6620</ARG_OF_PERICENTER><MEAN_ANOMALY>263.4818</MEAN_ANOMALY></meanElements><tleParameters><EPHEMERIS_TYPE>0</EPHEMERIS_TYPE><CLASSIFICATION_TYPE>U</CLASSIFICATION_TYPE><NORAD_CAT_ID>43925</NORAD_CAT_ID><ELEMENT_SET_NO>999</ELEMENT_SET_NO><REV_AT_EPOCH>31954</REV_AT_EPOCH><BSTAR>.20152E-3</BSTAR><MEAN_MOTION_DOT>.584E-5</MEAN_MOTION_DOT><MEAN_MOTION_DDOT>0</MEAN_MOTION_DDOT></tleParameters></data></segment></body></omm>
<omm id="CCSDS_OMM_VERS" version="2.0">
<header><CREATION_DATE/><ORIGINATOR/></header><body><segment><metadata><OBJECT_NAME>IRIDIUM 169</OBJECT_NAME><OBJECT_ID>2019-002E</OBJECT_ID><CENTER_NAME>EARTH</CENTER_NAME><REF_FRAME>TEME</REF_FRAME><TIME_SYSTEM>UTC</TIME_SYSTEM><MEAN_ELEMENT_THEORY>SGP4</MEAN_ELEMENT_THEORY></metadata><data><meanElements><EPOCH>2025-02-17T22:27:12.536064</EPOCH><MEAN_MOTION>14.38588589</MEAN_MOTION><ECCENTRICITY>.0003583</ECCENTRICITY><INCLINATION>86.4205</INCLINATION><RA_OF_ASC_NODE>227.5052</RA_OF_ASC_NODE><ARG_OF_PERICENTER>105.1977</ARG_OF_PERICENTER><MEAN_ANOMALY>254.9618</MEAN_ANOMALY></meanElements><tleParameters><EPHEMERIS_TYPE>0</EPHEMERIS_TYPE><CLASSIFICATION_TYPE>U</CLASSIFICATION_TYPE><NORAD_CAT_ID>43926</NORAD_CAT_ID><ELEMENT_SET_NO>999</ELEMENT_SET_NO><REV_AT_EPOCH>32060</REV_AT_EPOCH><BSTAR>.84792E-4</BSTAR><MEAN_MOTION_DOT>.279E-5</MEAN_MOTION_DOT><MEAN_MOTION_DDOT>0</MEAN_MOTION_DDOT></tleParameters></data></segment></body></omm>
<omm id="CCSDS_OMM_VERS" version="2.0">
<header><CREATION_DATE/><ORIGINATOR/></header><body><segment><metadata><OBJECT_NAME>IRIDIUM 172</OBJECT_NAME><OBJECT_ID>2019-002F</OBJECT_ID><CENTER_NAME>EARTH</CENTER_NAME><REF_FRAME>TEME</REF_FRAME><TIME_SYSTEM>UTC</TIME_SYSTEM><MEAN_ELEMENT_THEORY>SGP4</MEAN_ELEMENT_THEORY></metadata><data><meanElements><EPOCH>2025-02-17T22:00:34.803936</EPOCH><MEAN_MOTION>14.34218817</MEAN_MOTION><ECCENTRICITY>.0001907</ECCENTRICITY><INCLINATION>86.4009</INCLINATION><RA_OF_ASC_NODE>195.9302</RA_OF_ASC_NODE><ARG_OF_PERICENTER>98.6692</ARG_OF_PERICENTER><MEAN_ANOMALY>261.4719</MEAN_ANOMALY></meanElements><tleParameters><EPHEMERIS_TYPE>0</EPHEMERIS_TYPE><CLASSIFICATION_TYPE>U</CLASSIFICATION_TYPE><NORAD_CAT_ID>43927</NORAD_CAT_ID><ELEMENT_SET_NO>999</ELEMENT_SET_NO><REV_AT_EPOCH>31955</REV_AT_EPOCH><BSTAR>.87865E-4</BSTAR><MEAN_MOTION_DOT>.266E-5</MEAN_MOTION_DOT><MEAN_MOTION_DDOT>0</MEAN_MOTION_DDOT></tleParameters></data></segment></body></omm>
<omm id="CCSDS_OMM_VERS" version="2.0">
<header><CREATION_DATE/><ORIGINATOR/></header><body><segment><metadata><OBJECT_NAME>IRIDIUM 175</OBJECT_NAME><OBJECT_ID>2019-002G</OBJECT_ID><CENTER_NAME>EARTH</CENTER_NAME><REF_FRAME>TEME</REF_FRAME><TIME_SYSTEM>UTC</TIME_SYSTEM><MEAN_ELEMENT_THEORY>SGP4</MEAN_ELEMENT_THEORY></metadata><data><meanElements><EPOCH>2025-02-17T21:12:42.892128</EPOCH><MEAN_MOTION>14.72250382</MEAN_MOTION><ECCENTRICITY>.0003073</ECCENTRICITY><INCLINATION>86.1557</INCLINATION><RA_OF_ASC_NODE>155.3007</RA_OF_ASC_NODE><ARG_OF_PERICENTER>85.4886</ARG_OF_PERICENTER><MEAN_ANOMALY>274.6682</MEAN_ANOMALY></meanElements><tleParameters><EPHEMERIS_TYPE>0</EPHEMERIS_TYPE><CLASSIFICATION_TYPE>U</CLASSIFICATION_TYPE><NORAD_CAT_ID>43928</NORAD_CAT_ID><ELEMENT_SET_NO>999</ELEMENT_SET_NO><REV_AT_EPOCH>32798</REV_AT_EPOCH><BSTAR>.43838E-3</BSTAR><MEAN_MOTION_DOT>.279E-4</MEAN_MOTION_DOT><MEAN_MOTION_DDOT>0</MEAN_MOTION_DDOT></tleParameters></data></segment></body></omm>

</ndm>
