IRIDIUM 159             
1 43578U 18061K   25048.94294513  .00000002  00000+0 -64908-5 0  9993
2 43578  86.3919 259.0317 0001737  91.3512 268.7883 14.34217184343974
IRIDIUM 180             
1 43922U 19002A   25048.94244127  .00000081  00000+0  21927-4 0  9997
2 43922  86.4010 195.9409 0002134  98.0795 262.0643 14.34218111319581
IRIDIUM 176             
1 43923U 19002B   25048.88906644  .00002669  00000+0  41917-3 0  9994
2 43923  86.6137 195.9652 0001651 119.3716 240.7666 14.72270816327991
IRIDIUM 168             
1 43924U 19002C   25048.93609829 -.00000025  00000+0 -16059-4 0  9992
2 43924  86.4017 196.0074 0001805  97.4339 262.7062 14.34217539319564
IRIDIUM 173             
1 43925U 19002D   25048.92340659  .00000584  00000+0  20152-3 0  9991
2 43925  86.4009 195.9212 0002134  96.6620 263.4818 14.34218813319549
IRIDIUM 169             
1 43926U 19002E   25048.93556176  .00000279  00000+0  84792-4 0  9998
2 43926  86.4205 227.5052 0003583 105.1977 254.9618 14.38588589320608
IRIDIUM 172             
1 43927U 19002F   25048.91706949  .00000266  00000+0  87865-4 0  9992
2 43927  86.4009 195.9302 0001907  98.6692 261.4719 14.34218817319552
IRIDIUM 175             
1 43928U 19002G   25048.88382977  .00002790  00000+0  43838-3 0  9995
2 43928  86.1557 155.3007 0003073  85.4886 274.6682 14.72250382327981
